CCSDS_OMM_VERS = 2.0
CREATION_DATE  = 
ORIGINATOR     = 

OBJECT_NAME    = SL-16 R/B
OBJECT_ID      = 1996-051B
CENTER_NAME    = EARTH
REF_FRAME      = TEME
TIME_SYSTEM    = UTC
MEAN_ELEMENT_THEORY = SGP/SGP4

EPOCH          = 2025-11-15T12:07:42.572640
MEAN_MOTION    = 14.12393446
ECCENTRICITY   = .0018297
INCLINATION    = 70.7607
RA_OF_ASC_NODE = 56.9278
ARG_OF_PERICENTER = 295.5648
MEAN_ANOMALY   = 64.3580

EPHEMERIS_TYPE = 0
CLASSIFICATION_TYPE = U
NORAD_CAT_ID   = 24298
ELEMENT_SET_NO = 999
REV_AT_EPOCH   = 50552
BSTAR          = .33453E-4
MEAN_MOTION_DOT = .12E-6
MEAN_MOTION_DDOT = 0

CCSDS_OMM_VERS = 2.0
CREATION_DATE  = 
ORIGINATOR     = 

OBJECT_NAME    = ORBVIEW 2 (SEASTAR)
OBJECT_ID      = 1997-037A
CENTER_NAME    = EARTH
REF_FRAME      = TEME
TIME_SYSTEM    = UTC
MEAN_ELEMENT_THEORY = SGP/SGP4

EPOCH          = 2025-11-15T10:49:19.553664
MEAN_MOTION    = 14.35387787
ECCENTRICITY   = .0002908
INCLINATION    = 98.8449
RA_OF_ASC_NODE = 115.8411
ARG_OF_PERICENTER = 54.4270
MEAN_ANOMALY   = 305.7185

EPHEMERIS_TYPE = 0
CLASSIFICATION_TYPE = U
NORAD_CAT_ID   = 24883
ELEMENT_SET_NO = 999
REV_AT_EPOCH   = 49208
BSTAR          = .27883E-3
MEAN_MOTION_DOT = .754E-5
MEAN_MOTION_DDOT = 0

CCSDS_OMM_VERS = 2.0
CREATION_DATE  = 
ORIGINATOR     = 

OBJECT_NAME    = SL-16 R/B
OBJECT_ID      = 1998-043G
CENTER_NAME    = EARTH
REF_FRAME      = TEME
TIME_SYSTEM    = UTC
MEAN_ELEMENT_THEORY = SGP/SGP4

EPOCH          = 2025-11-15T10:25:06.945024
MEAN_MOTION    = 14.26015867
ECCENTRICITY   = .0009701
INCLINATION    = 98.8078
RA_OF_ASC_NODE = 267.1057
ARG_OF_PERICENTER = 352.5255
MEAN_ANOMALY   = 7.5778

EPHEMERIS_TYPE = 0
CLASSIFICATION_TYPE = U
NORAD_CAT_ID   = 25400
ELEMENT_SET_NO = 999
REV_AT_EPOCH   = 42270
BSTAR          = .10786E-3
MEAN_MOTION_DOT = .212E-5
MEAN_MOTION_DDOT = 0

CCSDS_OMM_VERS = 2.0
CREATION_DATE  = 
ORIGINATOR     = 

OBJECT_NAME    = SL-16 R/B
OBJECT_ID      = 1998-045B
CENTER_NAME    = EARTH
REF_FRAME      = TEME
TIME_SYSTEM    = UTC
MEAN_ELEMENT_THEORY = SGP/SGP4

EPOCH          = 2025-11-15T11:59:57.935904
MEAN_MOTION    = 14.16168907
ECCENTRICITY   = .0008549
INCLINATION    = 71.0122
RA_OF_ASC_NODE = 61.7089
ARG_OF_PERICENTER = 215.1095
MEAN_ANOMALY   = 144.9466

EPHEMERIS_TYPE = 0
CLASSIFICATION_TYPE = U
NORAD_CAT_ID   = 25407
ELEMENT_SET_NO = 999
REV_AT_EPOCH   = 41093
BSTAR          = -.47659E-4
MEAN_MOTION_DOT = -.142E-5
MEAN_MOTION_DDOT = 0

CCSDS_OMM_VERS = 2.0
CREATION_DATE  = 
ORIGINATOR     = 

OBJECT_NAME    = ISS (ZARYA)
OBJECT_ID      = 1998-067A
CENTER_NAME    = EARTH
REF_FRAME      = TEME
TIME_SYSTEM    = UTC
MEAN_ELEMENT_THEORY = SGP/SGP4

EPOCH          = 2025-11-15T09:15:09.665856
MEAN_MOTION    = 15.49683527
ECCENTRICITY   = .0004161
INCLINATION    = 51.6327
RA_OF_ASC_NODE = 277.8788
ARG_OF_PERICENTER = 73.2410
MEAN_ANOMALY   = 286.9034

EPHEMERIS_TYPE = 0
CLASSIFICATION_TYPE = U
NORAD_CAT_ID   = 25544
ELEMENT_SET_NO = 999
REV_AT_EPOCH   = 53861
BSTAR          = .24188E-3
MEAN_MOTION_DOT = .13221E-3
MEAN_MOTION_DDOT = 0

CCSDS_OMM_VERS = 2.0
CREATION_DATE  = 
ORIGINATOR     = 

OBJECT_NAME    = CZ-4B R/B
OBJECT_ID      = 1999-025C
CENTER_NAME    = EARTH
REF_FRAME      = TEME
TIME_SYSTEM    = UTC
MEAN_ELEMENT_THEORY = SGP/SGP4

EPOCH          = 2025-11-15T08:46:58.067904
MEAN_MOTION    = 14.18233786
ECCENTRICITY   = .0036294
INCLINATION    = 98.6812
RA_OF_ASC_NODE = 1.2527
ARG_OF_PERICENTER = 314.8960
MEAN_ANOMALY   = 55.4705

EPHEMERIS_TYPE = 0
CLASSIFICATION_TYPE = U
NORAD_CAT_ID   = 25732
ELEMENT_SET_NO = 999
REV_AT_EPOCH   = 37196
BSTAR          = .1174E-3
MEAN_MOTION_DOT = .199E-5
MEAN_MOTION_DDOT = 0

CCSDS_OMM_VERS = 2.0
CREATION_DATE  = 
ORIGINATOR     = 

OBJECT_NAME    = OKEAN-O
OBJECT_ID      = 1999-039A
CENTER_NAME    = EARTH
REF_FRAME      = TEME
TIME_SYSTEM    = UTC
MEAN_ELEMENT_THEORY = SGP/SGP4

EPOCH          = 2025-11-15T09:50:59.710848
MEAN_MOTION    = 14.80095246
ECCENTRICITY   = .0001364
INCLINATION    = 97.9645
RA_OF_ASC_NODE = 15.3440
ARG_OF_PERICENTER = 67.1726
MEAN_ANOMALY   = 292.9630

EPHEMERIS_TYPE = 0
CLASSIFICATION_TYPE = U
NORAD_CAT_ID   = 25860
ELEMENT_SET_NO = 999
REV_AT_EPOCH   = 41748
BSTAR          = .20752E-3
MEAN_MOTION_DOT = .1521E-4
MEAN_MOTION_DDOT = 0

CCSDS_OMM_VERS = 2.0
CREATION_DATE  = 
ORIGINATOR     = 

OBJECT_NAME    = SL-16 R/B
OBJECT_ID      = 1999-039B
CENTER_NAME    = EARTH
REF_FRAME      = TEME
TIME_SYSTEM    = UTC
MEAN_ELEMENT_THEORY = SGP/SGP4

EPOCH          = 2025-11-15T10:21:51.681024
MEAN_MOTION    = 14.81529939
ECCENTRICITY   = .001351
INCLINATION    = 98.0168
RA_OF_ASC_NODE = 13.5762
ARG_OF_PERICENTER = 268.1278
MEAN_ANOMALY   = 91.8388

EPHEMERIS_TYPE = 0
CLASSIFICATION_TYPE = U
NORAD_CAT_ID   = 25861
ELEMENT_SET_NO = 999
REV_AT_EPOCH   = 41994
BSTAR          = .17316E-3
MEAN_MOTION_DOT = .1306E-4
MEAN_MOTION_DDOT = 0

CCSDS_OMM_VERS = 2.0
CREATION_DATE  = 
ORIGINATOR     = 

OBJECT_NAME    = DELTA 2 R/B
OBJECT_ID      = 1999-041E
CENTER_NAME    = EARTH
REF_FRAME      = TEME
TIME_SYSTEM    = UTC
MEAN_ELEMENT_THEORY = SGP/SGP4

EPOCH          = 2025-11-15T10:47:33.539136
MEAN_MOTION    = 14.11305680
ECCENTRICITY   = .0504881
INCLINATION    = 51.7632
RA_OF_ASC_NODE = 37.3743
ARG_OF_PERICENTER = 11.3521
MEAN_ANOMALY   = 349.8313

EPHEMERIS_TYPE = 0
CLASSIFICATION_TYPE = U
NORAD_CAT_ID   = 25876
ELEMENT_SET_NO = 999
REV_AT_EPOCH   = 34689
BSTAR          = .28851E-3
MEAN_MOTION_DOT = .1549E-4
MEAN_MOTION_DDOT = 0

CCSDS_OMM_VERS = 2.0
CREATION_DATE  = 
ORIGINATOR     = 

OBJECT_NAME    = HELIOS 1B
OBJECT_ID      = 1999-064A
CENTER_NAME    = EARTH
REF_FRAME      = TEME
TIME_SYSTEM    = UTC
MEAN_ELEMENT_THEORY = SGP/SGP4

EPOCH          = 2025-11-15T10:04:43.298112
MEAN_MOTION    = 14.87125038
ECCENTRICITY   = .0002582
INCLINATION    = 98.1757
RA_OF_ASC_NODE = 213.2785
ARG_OF_PERICENTER = 79.5715
MEAN_ANOMALY   = 280.5791

EPHEMERIS_TYPE = 0
CLASSIFICATION_TYPE = U
NORAD_CAT_ID   = 25977
ELEMENT_SET_NO = 999
REV_AT_EPOCH   = 66827
BSTAR          = .27765E-3
MEAN_MOTION_DOT = .2436E-4
MEAN_MOTION_DDOT = 0

CCSDS_OMM_VERS = 2.0
CREATION_DATE  = 
ORIGINATOR     = 

OBJECT_NAME    = TERRA
OBJECT_ID      = 1999-068A
CENTER_NAME    = EARTH
REF_FRAME      = TEME
TIME_SYSTEM    = UTC
MEAN_ELEMENT_THEORY = SGP/SGP4

EPOCH          = 2025-11-15T11:22:16.184352
MEAN_MOTION    = 14.60907638
ECCENTRICITY   = .000256
INCLINATION    = 97.9790
RA_OF_ASC_NODE = 12.1526
ARG_OF_PERICENTER = 155.0073
MEAN_ANOMALY   = 260.9304

EPHEMERIS_TYPE = 0
CLASSIFICATION_TYPE = U
NORAD_CAT_ID   = 25994
ELEMENT_SET_NO = 999
REV_AT_EPOCH   = 37840
BSTAR          = .23445E-3
MEAN_MOTION_DOT = .1103E-4
MEAN_MOTION_DDOT = 0

CCSDS_OMM_VERS = 2.0
CREATION_DATE  = 
ORIGINATOR     = 

OBJECT_NAME    = SL-16 R/B
OBJECT_ID      = 2000-006B
CENTER_NAME    = EARTH
REF_FRAME      = TEME
TIME_SYSTEM    = UTC
MEAN_ELEMENT_THEORY = SGP/SGP4

EPOCH          = 2025-11-15T11:39:33.155424
MEAN_MOTION    = 14.15802148
ECCENTRICITY   = .0017036
INCLINATION    = 71.0029
RA_OF_ASC_NODE = 337.9643
ARG_OF_PERICENTER = 346.8402
MEAN_ANOMALY   = 13.2274

EPHEMERIS_TYPE = 0
CLASSIFICATION_TYPE = U
NORAD_CAT_ID   = 26070
ELEMENT_SET_NO = 999
REV_AT_EPOCH   = 33239
BSTAR          = -.45941E-4
MEAN_MOTION_DOT = -.138E-5
MEAN_MOTION_DDOT = 0

