SL-16 R/B               
1 24298U 96051B   25319.50535385  .00000012  00000+0  33453-4 0  9994
2 24298  70.7607  56.9278 0018297 295.5648  64.3580 14.12393446505527
ORBVIEW 2 (SEASTAR)     
1 24883U 97037A   25319.45092076  .00000754  00000+0  27883-3 0  9990
2 24883  98.8449 115.8411 0002908  54.4270 305.7185 14.35387787492086
SL-16 R/B               
1 25400U 98043G   25319.43410816  .00000212  00000+0  10786-3 0  9991
2 25400  98.8078 267.1057 0009701 352.5255   7.5778 14.26015867422704
SL-16 R/B               
1 25407U 98045B   25319.49997611 -.00000142  00000+0 -47659-4 0  9993
2 25407  71.0122  61.7089 0008549 215.1095 144.9466 14.16168907410937
ISS (ZARYA)             
1 25544U 98067A   25319.38552854  .00013221  00000+0  24188-3 0  9994
2 25544  51.6327 277.8788 0004161  73.2410 286.9034 15.49683527538617
CZ-4B R/B               
1 25732U 99025C   25319.36594986  .00000199  00000+0  11740-3 0  9998
2 25732  98.6812   1.2527 0036294 314.8960  55.4705 14.18233786371962
OKEAN-O                 
1 25860U 99039A   25319.41041332  .00001521  00000+0  20752-3 0  9996
2 25860  97.9645  15.3440 0001364  67.1726 292.9630 14.80095246417487
SL-16 R/B               
1 25861U 99039B   25319.43184816  .00001306  00000+0  17316-3 0  9997
2 25861  98.0168  13.5762 0013510 268.1278  91.8388 14.81529939419949
DELTA 2 R/B             
1 25876U 99041E   25319.44969374  .00001549  00000+0  28851-3 0  9992
2 25876  51.7632  37.3743 0504881  11.3521 349.8313 14.11305680346890
HELIOS 1B               
1 25977U 99064A   25319.41994558  .00002436  00000+0  27765-3 0  9997
2 25977  98.1757 213.2785 0002582  79.5715 280.5791 14.87125038668278
TERRA                   
1 25994U 99068A   25319.47379843  .00001103  00000+0  23445-3 0  9991
2 25994  97.9790  12.1526 0002560 155.0073 260.9304 14.60907638378403
SL-16 R/B               
1 26070U 00006B   25319.48580041 -.00000138  00000+0 -45941-4 0  9991
2 26070  71.0029 337.9643 0017036 346.8402  13.2274 14.15802148332398
